{"type": "FeatureCollection", "features": [ {"type": "Feature", "properties": {"norad_id": 33939, "name": "COSMOS 2251 DEB", "group": "cosmos-2251-debris", "lat": 66.40581361578161, "lon": -156.0193269537315, "alt_km": 558.245420587049, "timestamp": "2025-12-20T09:36:02.042245+00:00", "meta": {"OBJECT_NAME": "COSMOS 2251 DEB", "OBJECT_ID": "1993-036EU", "EPOCH": "2025-12-20T04:19:21.301824", "MEAN_MOTION": 15.00377843, "ECCENTRICITY": 0.0004445, "INCLINATION": 74.0068, "RA_OF_ASC_NODE": 65.475, "ARG_OF_PERICENTER": 29.8219, "MEAN_ANOMALY": 330.322, "EPHEMERIS_TYPE": 0, "CLASSIFICATION_TYPE": "U", "NORAD_CAT_ID": 33939, "ELEMENT_SET_NO": 999, "REV_AT_EPOCH": 88864, "BSTAR": 0.0015951, "MEAN_MOTION_DOT": 0.00020061, "MEAN_MOTION_DDOT": 0}, "tle": {"line1": "1 33939U 93036EU  25354.18010766  .00020061  00000+0  15951-2 0  9997", "line2": "2 33939  74.0068  65.4750 0004445  29.8219 330.3220 15.00377843888644"}}, "geometry": {"type": "Point", "coordinates": [-156.0193269537315, 66.40581361578161]}}, {"type": "Feature", "properties": {"norad_id": 33940, "name": "COSMOS 2251 DEB", "group": "cosmos-2251-debris", "lat": 1.008133129751038, "lon": -51.377799460141645, "alt_km": 692.6629503320601, "timestamp": "2025-12-20T09:36:02.042255+00:00", "meta": {"OBJECT_NAME": "COSMOS 2251 DEB", "OBJECT_ID": "1993-036EV", "EPOCH": "2025-12-20T03:00:34.394976", "MEAN_MOTION": 14.58859184, "ECCENTRICITY": 0.0010963, "INCLINATION": 74.0393, "RA_OF_ASC_NODE": 129.4335, "ARG_OF_PERICENTER": 209.7656, "MEAN_ANOMALY": 327.4205, "EPHEMERIS_TYPE": 0, "CLASSIFICATION_TYPE": "U", "NORAD_CAT_ID": 33940, "ELEMENT_SET_NO": 999, "REV_AT_EPOCH": 88701, "BSTAR": 0.0007199, "MEAN_MOTION_DOT": 3.345e-05, "MEAN_MOTION_DDOT": 0}, "tle": {"line1": "1 33940U 93036EV  25354.12539809  .00003345  00000+0  71990-3 0  9999", "line2": "2 33940  74.0393 129.4335 0010963 209.7656 327.4205 14.58859184887018"}}, "geometry": {"type": "Point", "coordinates": [-51.377799460141645, 1.008133129751038]}}, {"type": "Feature", "properties": {"norad_id": 33942, "name": "COSMOS 2251 DEB", "group": "cosmos-2251-debris", "lat": 17.096093995622198, "lon": 75.67072742462888, "alt_km": 780.0074025430304, "timestamp": "2025-12-20T09:36:02.042265+00:00", "meta": {"OBJECT_NAME": "COSMOS 2251 DEB", "OBJECT_ID": "1993-036EX", "EPOCH": "2025-12-20T04:35:24.686016", "MEAN_MOTION": 14.37998555, "ECCENTRICITY": 0.0020633, "INCLINATION": 74.0365, "RA_OF_ASC_NODE": 261.1058, "ARG_OF_PERICENTER": 342.9597, "MEAN_ANOMALY": 178.8251, "EPHEMERIS_TYPE": 0, "CLASSIFICATION_TYPE": "U", "NORAD_CAT_ID": 33942, "ELEMENT_SET_NO": 999, "REV_AT_EPOCH": 88241, "BSTAR": 0.00015948, "MEAN_MOTION_DOT": 4.57e-06, "MEAN_MOTION_DDOT": 0}, "tle": {"line1": "1 33942U 93036EX  25354.19125794  .00000457  00000+0  15948-3 0  9994", "line2": "2 33942  74.0365 261.1058 0020633 342.9597 178.8251 14.37998555882415"}}, "geometry": {"type": "Point", "coordinates": [75.67072742462888, 17.096093995622198]}}, {"type": "Feature", "properties": {"norad_id": 33944, "name": "COSMOS 2251 DEB", "group": "cosmos-2251-debris", "lat": 17.696539783379844, "lon": -59.928176828728866, "alt_km": 689.2153285528257, "timestamp": "2025-12-20T09:36:02.042275+00:00", "meta": {"OBJECT_NAME": "COSMOS 2251 DEB", "OBJECT_ID": "1993-036EZ", "EPOCH": "2025-12-19T23:49:18.804864", "MEAN_MOTION": 14.37358277, "ECCENTRICITY": 0.0112491, "INCLINATION": 74.0406, "RA_OF_ASC_NODE": 295.5823, "ARG_OF_PERICENTER": 33.3246, "MEAN_ANOMALY": 38.0513, "EPHEMERIS_TYPE": 0, "CLASSIFICATION_TYPE": "U", "NORAD_CAT_ID": 33944, "ELEMENT_SET_NO": 999, "REV_AT_EPOCH": 88132, "BSTAR": 0.00025262, "MEAN_MOTION_DOT": 7.84e-06, "MEAN_MOTION_DDOT": 0}, "tle": {"line1": "1 33944U 93036EZ  25353.99257876  .00000784  00000+0  25262-3 0  9993", "line2": "2 33944  74.0406 295.5823 0112491  33.3246  38.0513 14.37358277881328"}}, "geometry": {"type": "Point", "coordinates": [-59.928176828728866, 17.696539783379844]}}, {"type": "Feature", "properties": {"norad_id": 33945, "name": "COSMOS 2251 DEB", "group": "cosmos-2251-debris", "lat": 72.87296182264132, "lon": 43.910145388753556, "alt_km": 766.1555182100319, "timestamp": "2025-12-20T09:36:02.042285+00:00", "meta": {"OBJECT_NAME": "COSMOS 2251 DEB", "OBJECT_ID": "1993-036FA", "EPOCH": "2025-12-20T02:27:38.922048", "MEAN_MOTION": 14.34606194, "ECCENTRICITY": 0.0022225, "INCLINATION": 74.0302, "RA_OF_ASC_NODE": 292.7758, "ARG_OF_PERICENTER": 17.1317, "MEAN_ANOMALY": 343.058, "EPHEMERIS_TYPE": 0, "CLASSIFICATION_TYPE": "U", "NORAD_CAT_ID": 33945, "ELEMENT_SET_NO": 999, "REV_AT_EPOCH": 88121, "BSTAR": 9.1971e-05, "MEAN_MOTION_DOT": 2.34e-06, "MEAN_MOTION_DDOT": 0}, "tle": {"line1": "1 33945U 93036FA  25354.10253382  .00000234  00000+0  91971-4 0  9997", "line2": "2 33945  74.0302 292.7758 0022225  17.1317 343.0580 14.34606194881216"}}, "geometry": {"type": "Point", "coordinates": [43.910145388753556, 72.87296182264132]}}, {"type": "Feature", "properties": {"norad_id": 33948, "name": "COSMOS 2251 DEB", "group": "cosmos-2251-debris", "lat": -25.825095807742287, "lon": -76.88371509859564, "alt_km": 764.2273610704797, "timestamp": "2025-12-20T09:36:02.042295+00:00", "meta": {"OBJECT_NAME": "COSMOS 2251 DEB", "OBJECT_ID": "1993-036FD", "EPOCH": "2025-12-19T22:01:06.340800", "MEAN_MOTION": 14.35637137, "ECCENTRICITY": 0.0023044, "INCLINATION": 74.0359, "RA_OF_ASC_NODE": 291.9644, "ARG_OF_PERICENTER": 6.0328, "MEAN_ANOMALY": 354.1097, "EPHEMERIS_TYPE": 0, "CLASSIFICATION_TYPE": "U", "NORAD_CAT_ID": 33948, "ELEMENT_SET_NO": 999, "REV_AT_EPOCH": 88126, "BSTAR": 0.00013775, "MEAN_MOTION_DOT": 3.72e-06, "MEAN_MOTION_DDOT": 0}, "tle": {"line1": "1 33948U 93036FD  25353.91743450  .00000372  00000+0  13775-3 0  9996", "line2": "2 33948  74.0359 291.9644 0023044   6.0328 354.1097 14.35637137881268"}}, "geometry": {"type": "Point", "coordinates": [-76.88371509859564, -25.825095807742287]}}, {"type": "Feature", "properties": {"norad_id": 33971, "name": "COSMOS 2251 DEB", "group": "cosmos-2251-debris", "lat": 24.746125737188798, "lon": 51.988629961904685, "alt_km": 771.7111748197431, "timestamp": "2025-12-20T09:36:02.042305+00:00", "meta": {"OBJECT_NAME": "COSMOS 2251 DEB", "OBJECT_ID": "1993-036FE", "EPOCH": "2025-12-20T02:54:46.540800", "MEAN_MOTION": 14.39737294, "ECCENTRICITY": 0.0018835, "INCLINATION": 74.0244, "RA_OF_ASC_NODE": 240.091, "ARG_OF_PERICENTER": 339.295, "MEAN_ANOMALY": 171.0908, "EPHEMERIS_TYPE": 0, "CLASSIFICATION_TYPE": "U", "NORAD_CAT_ID": 33971, "ELEMENT_SET_NO": 999, "REV_AT_EPOCH": 88245, "BSTAR": 0.0001906, "MEAN_MOTION_DOT": 5.72e-06, "MEAN_MOTION_DDOT": 0}, "tle": {"line1": "1 33971U 93036FE  25354.12137200  .00000572  00000+0  19060-3 0  9991", "line2": "2 33971  74.0244 240.0910 0018835 339.2950 171.0908 14.39737294882450"}}, "geometry": {"type": "Point", "coordinates": [51.988629961904685, 24.746125737188798]}}, {"type": "Feature", "properties": {"norad_id": 33972, "name": "COSMOS 2251 DEB", "group": "cosmos-2251-debris", "lat": -3.4612065420252027, "lon": 175.56228345744177, "alt_km": 688.0453769176975, "timestamp": "2025-12-20T09:36:02.042315+00:00", "meta": {"OBJECT_NAME": "COSMOS 2251 DEB", "OBJECT_ID": "1993-036FF", "EPOCH": "2025-12-18T23:12:46.905120", "MEAN_MOTION": 14.36266996, "ECCENTRICITY": 0.01235996, "INCLINATION": 73.9933, "RA_OF_ASC_NODE": 179.1952, "ARG_OF_PERICENTER": 345.5656, "MEAN_ANOMALY": 165.109, "EPHEMERIS_TYPE": 0, "CLASSIFICATION_TYPE": "U", "NORAD_CAT_ID": 33972, "ELEMENT_SET_NO": 999, "REV_AT_EPOCH": 87163, "BSTAR": 0.00091407124, "MEAN_MOTION_DOT": 2.886e-05, "MEAN_MOTION_DDOT": 0}, "tle": {"line1": "1 33972U 93036FF  25352.96720955  .00002886  00000+0  91407-3 0  9992", "line2": "2 33972  73.9933 179.1952 0123599 345.5656 165.1090 14.36266996871636"}}, "geometry": {"type": "Point", "coordinates": [175.56228345744177, -3.4612065420252027]}}, {"type": "Feature", "properties": {"norad_id": 33973, "name": "COSMOS 2251 DEB", "group": "cosmos-2251-debris", "lat": -0.737927829016039, "lon": 88.37923480828263, "alt_km": 745.4809835493397, "timestamp": "2025-12-20T09:36:02.042325+00:00", "meta": {"OBJECT_NAME": "COSMOS 2251 DEB", "OBJECT_ID": "1993-036FG", "EPOCH": "2025-12-20T00:27:30.207168", "MEAN_MOTION": 14.45398077, "ECCENTRICITY": 0.0047406, "INCLINATION": 74.0087, "RA_OF_ASC_NODE": 89.3018, "ARG_OF_PERICENTER": 266.4033, "MEAN_ANOMALY": 271.0924, "EPHEMERIS_TYPE": 0, "CLASSIFICATION_TYPE": "U", "NORAD_CAT_ID": 33973, "ELEMENT_SET_NO": 999, "REV_AT_EPOCH": 88705, "BSTAR": 0.00010408, "MEAN_MOTION_DOT": 3.43e-06, "MEAN_MOTION_DDOT": 0}, "tle": {"line1": "1 33973U 93036FG  25354.01909962  .00000343  00000+0  10408-3 0  9996", "line2": "2 33973  74.0087  89.3018 0047406 266.4033 271.0924 14.45398077887058"}}, "geometry": {"type": "Point", "coordinates": [88.37923480828263, -0.737927829016039]}}, {"type": "Feature", "properties": {"norad_id": 33975, "name": "COSMOS 2251 DEB", "group": "cosmos-2251-debris", "lat": 35.87095108508451, "lon": -121.14502087122659, "alt_km": 818.3872193454763, "timestamp": "2025-12-20T09:36:02.042335+00:00", "meta": {"OBJECT_NAME": "COSMOS 2251 DEB", "OBJECT_ID": "1993-036FJ", "EPOCH": "2025-12-19T05:28:53.307264", "MEAN_MOTION": 14.00537307, "ECCENTRICITY": 0.0191115, "INCLINATION": 73.8018, "RA_OF_ASC_NODE": 73.0471, "ARG_OF_PERICENTER": 204.9448, "MEAN_ANOMALY": 154.2359, "EPHEMERIS_TYPE": 0, "CLASSIFICATION_TYPE": "U", "NORAD_CAT_ID": 33975, "ELEMENT_SET_NO": 999, "REV_AT_EPOCH": 85920, "BSTAR": 0.000393, "MEAN_MOTION_DOT": 6.58e-06, "MEAN_MOTION_DDOT": 0}, "tle": {"line1": "1 33975U 93036FJ  25353.22839476  .00000658  00000+0  39300-3 0  9993", "line2": "2 33975  73.8018  73.0471 0191115 204.9448 154.2359 14.00537307859200"}}, "geometry": {"type": "Point", "coordinates": [-121.14502087122659, 35.87095108508451]}}]}